NORAD_CAT_ID,OBJECT_NAME,OBJECT_TYPE,EPOCH,MEAN_MOTION,ECCENTRICITY,INCLINATION,RA_OF_ASC_NODE,ARG_OF_PERICENTER,MEAN_ANOMALY,BSTAR,MEAN_MOTION_DOT,MEAN_MOTION_DDOT,TLE_LINE0,TLE_LINE1,TLE_LINE2,SEMIMAJOR_AXIS,PERIOD,APOGEE,PERIGEE,DECAYED
49144.0,STARLINK-3100,PAYLOAD,2024-03-31 21:53:37,14.98331179,0.0003164,69.9987,279.0016,262.9203,97.1596,6.8165e-05,7.2e-06,0.0,0 STARLINK-3100,1 49144U 21082Q   24091.91223587  .00000720  00000-0  68165-4 0  9997,2 49144  69.9987 279.0016 0003164 262.9203  97.1596 14.98331179139966,6950.189,96.107,574.253,569.855,0.0
49144.0,STARLINK-3100,PAYLOAD,2024-04-01 12:18:50,14.98325502,0.0003184,69.9983,277.4863,263.7481,96.3315,-3.4125e-06,-1.34e-06,0.0,0 STARLINK-3100,1 49144U 21082Q   24092.51308161 -.00000134  00000-0 -34125-5 0  9997,2 49144  69.9983 277.4863 0003184 263.7481  96.3315 14.98325502140058,6950.207,96.107,574.285,569.859,0.0
49144.0,STARLINK-3100,PAYLOAD,2024-04-01 13:54:58,14.9832559,0.000318,69.9983,277.3179,263.7654,96.3143,-3.8642e-06,-1.39e-06,0.0,0 STARLINK-3100,1 49144U 21082Q   24092.57984172 -.00000139  00000-0 -38642-5 0  9998,2 49144  69.9983 277.3179 0003180 263.7654  96.3143 14.98325590140062,6950.207,96.107,574.282,569.861,0.0
49144.0,STARLINK-3100,PAYLOAD,2024-04-02 12:20:50,14.98332107,0.0003184,69.9984,274.9611,264.1996,95.88,5.061e-05,5.11e-06,0.0,0 STARLINK-3100,1 49144U 21082Q   24093.51447701  .00000511  00000-0  50610-4 0  9995,2 49144  69.9984 274.9611 0003184 264.1996  95.8800 14.98332107140207,6950.186,96.107,574.264,569.838,0.0
49144.0,STARLINK-3100,PAYLOAD,2024-04-02 13:56:58,14.98332249,0.0003183,69.9984,274.7928,264.2007,95.8789,5.1163e-05,5.18e-06,0.0,0 STARLINK-3100,1 49144U 21082Q   24093.58123683  .00000518  00000-0  51163-4 0  9993,2 49144  69.9984 274.7928 0003183 264.2007  95.8789 14.98332249140213,6950.186,96.107,574.263,569.839,0.0
49144.0,STARLINK-3100,PAYLOAD,2024-04-02 20:21:30,14.9833491,0.0003191,69.9984,274.1198,265.1348,94.9446,5.9365e-05,6.15e-06,0.0,0 STARLINK-3100,1 49144U 21082Q   24093.84827466  .00000615  00000-0  59365-4 0  9992,2 49144  69.9984 274.1198 0003191 265.1348  94.9446 14.98334910140254,6950.178,96.107,574.261,569.825,0.0
49144.0,STARLINK-3100,PAYLOAD,2024-04-03 12:22:51,14.98329517,0.0003127,69.9986,272.4364,265.4522,94.628,8.2639e-05,8.93e-06,0.0,0 STARLINK-3100,1 49144U 21082Q   24094.51587661  .00000893  00000-0  82639-4 0  9995,2 49144  69.9986 272.4364 0003127 265.4522  94.6280 14.98329517140359,6950.194,96.107,574.233,569.886,0.0
49144.0,STARLINK-3100,PAYLOAD,2024-04-03 18:47:23,14.98330255,0.0003133,69.9986,271.7631,265.6932,94.3869,8.4478e-05,9.15e-06,0.0,0 STARLINK-3100,1 49144U 21082Q   24094.78291616  .00000915  00000-0  84478-4 0  9994,2 49144  69.9986 271.7631 0003133 265.6932  94.3869 14.98330255140397,6950.192,96.107,574.235,569.88,0.0
49144.0,STARLINK-3100,PAYLOAD,2024-04-03 20:23:32,14.98329909,0.0003153,69.9985,271.5948,265.7089,94.371,7.7043e-05,8.26e-06,0.0,0 STARLINK-3100,1 49144U 21082Q   24094.84967660  .00000826  00000-0  77043-4 0  9991,2 49144  69.9985 271.5948 0003153 265.7089  94.3710 14.98329909140402,6950.193,96.107,574.25,569.867,0.0
49144.0,STARLINK-3100,PAYLOAD,2024-04-04 14:01:00,14.98332817,0.000311,69.9986,269.7431,265.7866,94.2938,3.8073e-06,-4.8e-07,0.0,0 STARLINK-3100,1 49144U 21082Q   24095.58403569 -.00000048  00000-0  38073-5 0  9994,2 49144  69.9986 269.7431 0003110 265.7866  94.2938 14.98332817140510,6950.184,96.107,574.211,569.888,0.0
49144.0,STARLINK-3100,PAYLOAD,2024-04-04 20:25:32,14.98334103,0.0003086,69.9986,269.0699,265.2714,94.8092,1.7727e-05,1.19e-06,0.0,0 STARLINK-3100,1 49144U 21082Q   24095.85107386  .00000119  00000-0  17727-4 0  9992,2 49144  69.9986 269.0699 0003086 265.2714  94.8092 14.98334103140559,6950.18,96.107,574.19,569.9,0.0
49144.0,STARLINK-3100,PAYLOAD,2024-04-05 12:26:53,14.98303779,0.0002876,69.9987,267.3864,265.4977,94.5854,0.00052175,6.134e-05,0.0,0 STARLINK-3100,1 49144U 21082Q   24096.51867542  .00006134  00000-0  52175-3 0  9991,2 49144  69.9987 267.3864 0002876 265.4977  94.5854 14.98303779140653,6950.274,96.109,574.138,570.14,0.0
49144.0,STARLINK-3100,PAYLOAD,2024-04-05 14:03:01,14.98333219,0.0003069,69.9987,267.2181,267.0866,92.9942,3.7582e-05,3.55e-06,0.0,0 STARLINK-3100,1 49144U 21082Q   24096.58543183  .00000355  00000-0  37582-4 0  9995,2 49144  69.9987 267.2181 0003069 267.0866  92.9942 14.98333219140667,6950.183,96.107,574.181,569.915,0.0
49144.0,STARLINK-3100,PAYLOAD,2024-04-05 20:27:33,14.98334631,0.0003047,69.9988,266.5448,267.3884,92.6926,5.0811e-05,5.13e-06,0.0,0 STARLINK-3100,1 49144U 21082Q   24096.85246990  .00000513  00000-0  50811-4 0  9997,2 49144  69.9988 266.5448 0003047 267.3884  92.6926 14.98334631140708,6950.179,96.107,574.161,569.926,0.0
49144.0,STARLINK-3100,PAYLOAD,2024-04-06 04:28:13,14.98331976,0.0003045,69.9988,265.7033,267.8784,92.2026,-4.4246e-07,-9.8e-07,0.0,0 STARLINK-3100,1 49144U 21082Q   24097.18627219 -.00000098  00000-0 -44246-6 0  9998,2 49144  69.9988 265.7033 0003045 267.8784  92.2026 14.98331976140752,6950.187,96.107,574.168,569.935,0.0
49144.0,STARLINK-3100,PAYLOAD,2024-04-06 20:29:34,14.98327781,0.0003023,69.9989,264.0201,269.3674,90.7138,-2.4662e-05,-3.87e-06,0.0,0 STARLINK-3100,1 49144U 21082Q   24097.85387568 -.00000387  00000-0 -24662-4 0  9991,2 49144  69.9989 264.0201 0003023 269.3674  90.7138 14.98327781140850,6950.2,96.107,574.166,569.964,0.0
49144.0,STARLINK-3100,PAYLOAD,2024-04-07 10:54:47,14.98329469,0.0003012,69.9991,262.5054,269.5624,90.519,-2.8286e-05,-4.3e-06,0.0,0 STARLINK-3100,1 49144U 21082Q   24098.45471530 -.00000430  00000-0 -28286-4 0  9996,2 49144  69.9991 262.5054 0003012 269.5624  90.5190 14.98329469140948,6950.195,96.107,574.153,569.966,0.0
49144.0,STARLINK-3100,PAYLOAD,2024-04-07 20:31:35,14.98329206,0.0003101,69.9988,261.495,270.7932,89.2871,-4.0861e-05,-5.81e-06,0.0,0 STARLINK-3100,1 49144U 21082Q   24098.85527590 -.00000581  00000-0 -40861-4 0  9998,2 49144  69.9988 261.4950 0003101 270.7932  89.2871 14.98329206141000,6950.195,96.107,574.216,569.905,0.0
49144.0,STARLINK-3100,PAYLOAD,2024-04-08 10:56:48,14.98330199,0.0003114,69.9982,259.9793,270.4279,89.6523,7.8512e-05,8.44e-06,0.0,0 STARLINK-3100,1 49144U 21082Q   24099.45611234  .00000844  00000-0  78512-4 0  9998,2 49144  69.9982 259.9793 0003114 270.4279  89.6523 14.98330199141096,6950.192,96.107,574.222,569.893,0.0
49144.0,STARLINK-3100,PAYLOAD,2024-04-08 17:21:20,14.98332371,0.0003127,69.9977,259.3065,270.9635,89.1165,8.7594e-05,9.52e-06,0.0,0 STARLINK-3100,1 49144U 21082Q   24099.72315086  .00000952  00000-0  87594-4 0  9994,2 49144  69.9977 259.3065 0003127 270.9635  89.1165 14.98332371141137,6950.186,96.107,574.224,569.877,0.0
49144.0,STARLINK-3100,PAYLOAD,2024-04-09 09:22:42,14.98312461,0.0003248,69.9982,257.6229,273.1517,86.927,-8.3565e-05,-1.09e-05,0.0,0 STARLINK-3100,1 49144U 21082Q   24100.39077269 -.00001090  00000-0 -83565-4 0  9998,2 49144  69.9982 257.6229 0003248 273.1517  86.9270 14.98312461141235,6950.247,96.108,574.37,569.855,0.0
49144.0,STARLINK-3100,PAYLOAD,2024-04-09 17:23:23,14.98307296,0.000398,70.0048,256.7804,276.425,83.6456,-0.00014685,-1.844e-05,0.0,0 STARLINK-3100,1 49144U 21082Q   24100.72458262 -.00001844  00000-0 -14685-3 0  9994,2 49144  70.0048 256.7804 0003980 276.4250  83.6456 14.98307296141288,6950.263,96.108,574.894,569.362,0.0
49144.0,STARLINK-3100,PAYLOAD,2024-04-10 09:24:43,14.98325286,0.0003734,69.9967,255.0975,270.3748,89.6983,-2.6911e-05,-4.14e-06,0.0,0 STARLINK-3100,1 49144U 21082Q   24101.39217156 -.00000414  00000-0 -26911-4 0  9991,2 49144  69.9967 255.0975 0003734 270.3748  89.6983 14.98325286141389,6950.207,96.107,574.668,569.477,0.0
49144.0,STARLINK-3100,PAYLOAD,2024-04-10 20:37:39,14.98337773,0.0003285,70.0004,253.9197,272.4031,87.6752,0.00011483,1.278e-05,0.0,0 STARLINK-3100,1 49144U 21082Q   24101.85948101  .00001278  00000-0  11483-3 0  9997,2 49144  70.0004 253.9197 0003285 272.4031  87.6752 14.98337773141450,6950.169,96.107,574.317,569.751,0.0
49144.0,STARLINK-3100,PAYLOAD,2024-04-11 14:15:08,14.98296176,0.0004024,69.9989,252.0682,270.5796,89.4902,0.00093231,0.0001104,0.0,0 STARLINK-3100,1 49144U 21082Q   24102.59384466  .00011040  00000-0  93231-3 0  9996,2 49144  69.9989 252.0682 0004024 270.5796  89.4902 14.98296176141567,6950.297,96.109,574.959,569.366,0.0
49144.0,STARLINK-3100,PAYLOAD,2024-04-11 17:27:23,14.98337581,0.0003608,69.9993,251.7313,268.8307,91.2439,0.00039063,4.572e-05,0.0,0 STARLINK-3100,1 49144U 21082Q   24102.72735301  .00004572  00000-0  39063-3 0  9994,2 49144  69.9993 251.7313 0003608 268.8307  91.2439 14.98337581141588,6950.169,96.107,574.542,569.527,0.0
49144.0,STARLINK-3100,PAYLOAD,2024-04-12 03:04:12,14.98299172,0.0003547,69.9997,250.723,272.6566,87.4187,0.00094569,0.000112,0.0,0 STARLINK-3100,1 49144U 21082Q   24103.12792548  .00011200  00000-0  94569-3 0  9993,2 49144  69.9997 250.7230 0003547 272.6566  87.4187 14.98299172141648,6950.288,96.109,574.618,569.688,0.0
49144.0,STARLINK-3100,PAYLOAD,2024-04-12 12:41:00,14.98338038,0.0003372,70.0004,249.7133,271.5572,88.5201,-7.5673e-05,-9.96e-06,0.0,0 STARLINK-3100,1 49144U 21082Q   24103.52848068 -.00000996  00000-0 -75673-4 0  9994,2 49144  70.0004 249.7133 0003372 271.5572  88.5201 14.98338038141702,6950.168,96.106,574.377,569.689,0.0
49144.0,STARLINK-3100,PAYLOAD,2024-04-12 14:17:08,14.9833796,0.0003373,70.0004,249.545,271.5508,88.5265,-7.6708e-05,-1.008e-05,0.0,0 STARLINK-3100,1 49144U 21082Q   24103.59524025 -.00001008  00000-0 -76708-4 0  9990,2 49144  70.0004 249.5450 0003373 271.5508  88.5265 14.98337960141716,6950.168,96.106,574.378,569.689,0.0
49144.0,STARLINK-3100,PAYLOAD,2024-04-13 12:43:01,14.98337673,0.0003247,70.0008,247.1893,271.4648,88.6139,-0.00016794,-2.097e-05,0.0,0 STARLINK-3100,1 49144U 21082Q   24104.52987750 -.00002097  00000-0 -16794-3 0  9999,2 49144  70.0008 247.1893 0003247 271.4648  88.6139 14.98337673141856,6950.169,96.107,574.291,569.777,0.0
